{
  "norad_id": 63119,
  "name": "STARLINK-32941",
  "history": [
    {
      "epoch": "2026-03-28T19:39:10.679040",
      "apogee_km": 483.90811576742544,
      "perigee_km": 481.9971650807747,
      "latitude_deg": 42.969860990035556,
      "longitude_deg": -149.4881344002206,
      "semi_major_axis_km": 6861.089640424099,
      "eccentricity": 0.00013926,
      "inclination_deg": 42.9998,
      "raan_deg": 253.3766,
      "arg_perigee_deg": 273.125,
      "mean_anomaly_deg": 86.9442,
      "mean_motion_rev_day": 15.27612213
    }
  ]
}